<?xml version="1.0" encoding="UTF-8"?>
<ndm xmlns:xsi="http://www.w3.org/2001/XMLSchema-instance" xsi:noNamespaceSchemaLocation="https://sanaregistry.org/r/ndmxml_unqualified/ndmxml-2.0.0-master-2.0.xsd">
<omm id="CCSDS_OMM_VERS" version="2.0">
<header><CREATION_DATE/><ORIGINATOR/></header><body><segment><metadata><OBJECT_NAME>ONEWEB-0721</OBJECT_NAME><OBJECT_ID>2023-068R</OBJECT_ID><CENTER_NAME>EARTH</CENTER_NAME><REF_FRAME>TEME</REF_FRAME><TIME_SYSTEM>UTC</TIME_SYSTEM><MEAN_ELEMENT_THEORY>SGP4</MEAN_ELEMENT_THEORY></metadata><data><meanElements><EPOCH>2026-01-13T13:37:15.743712</EPOCH><MEAN_MOTION>13.22456884</MEAN_MOTION><ECCENTRICITY>.00015492</ECCENTRICITY><INCLINATION>86.6821</INCLINATION><RA_OF_ASC_NODE>134.8558</RA_OF_ASC_NODE><ARG_OF_PERICENTER>105.9655</ARG_OF_PERICENTER><MEAN_ANOMALY>254.1649</MEAN_ANOMALY></meanElements><tleParameters><EPHEMERIS_TYPE>0</EPHEMERIS_TYPE><CLASSIFICATION_TYPE>U</CLASSIFICATION_TYPE><NORAD_CAT_ID>56725</NORAD_CAT_ID><ELEMENT_SET_NO>999</ELEMENT_SET_NO><REV_AT_EPOCH>13750</REV_AT_EPOCH><BSTAR>.17445683E-4</BSTAR><MEAN_MOTION_DOT>.22E-6</MEAN_MOTION_DOT><MEAN_MOTION_DDOT>0</MEAN_MOTION_DDOT></tleParameters></data></segment></body></omm>
<omm id="CCSDS_OMM_VERS" version="2.0">
<header><CREATION_DATE/><ORIGINATOR/></header><body><segment><metadata><OBJECT_NAME>ONEWEB-0015</OBJECT_NAME><OBJECT_ID>2024-188A</OBJECT_ID><CENTER_NAME>EARTH</CENTER_NAME><REF_FRAME>TEME</REF_FRAME><TIME_SYSTEM>UTC</TIME_SYSTEM><MEAN_ELEMENT_THEORY>SGP4</MEAN_ELEMENT_THEORY></metadata><data><meanElements><EPOCH>2026-01-13T12:04:45.342912</EPOCH><MEAN_MOTION>13.11413715</MEAN_MOTION><ECCENTRICITY>.00024037</ECCENTRICITY><INCLINATION>87.8821</INCLINATION><RA_OF_ASC_NODE>51.8923</RA_OF_ASC_NODE><ARG_OF_PERICENTER>95.2190</ARG_OF_PERICENTER><MEAN_ANOMALY>264.9213</MEAN_ANOMALY></meanElements><tleParameters><EPHEMERIS_TYPE>0</EPHEMERIS_TYPE><CLASSIFICATION_TYPE>U</CLASSIFICATION_TYPE><NORAD_CAT_ID>61594</NORAD_CAT_ID><ELEMENT_SET_NO>999</ELEMENT_SET_NO><REV_AT_EPOCH>6418</REV_AT_EPOCH><BSTAR>-.10578563E-2</BSTAR><MEAN_MOTION_DOT>-.362E-5</MEAN_MOTION_DOT><MEAN_MOTION_DDOT>0</MEAN_MOTION_DDOT></tleParameters></data></segment></body></omm>
<omm id="CCSDS_OMM_VERS" version="2.0">
<header><CREATION_DATE/><ORIGINATOR/></header><body><segment><metadata><OBJECT_NAME>ONEWEB-0687</OBJECT_NAME><OBJECT_ID>2024-188B</OBJECT_ID><CENTER_NAME>EARTH</CENTER_NAME><REF_FRAME>TEME</REF_FRAME><TIME_SYSTEM>UTC</TIME_SYSTEM><MEAN_ELEMENT_THEORY>SGP4</MEAN_ELEMENT_THEORY></metadata><data><meanElements><EPOCH>2026-01-13T13:10:16.899744</EPOCH><MEAN_MOTION>13.17649552</MEAN_MOTION><ECCENTRICITY>.00022702</ECCENTRICITY><INCLINATION>87.9074</INCLINATION><RA_OF_ASC_NODE>36.6294</RA_OF_ASC_NODE><ARG_OF_PERICENTER>104.4012</ARG_OF_PERICENTER><MEAN_ANOMALY>255.7371</MEAN_ANOMALY></meanElements><tleParameters><EPHEMERIS_TYPE>0</EPHEMERIS_TYPE><CLASSIFICATION_TYPE>U</CLASSIFICATION_TYPE><NORAD_CAT_ID>61595</NORAD_CAT_ID><ELEMENT_SET_NO>999</ELEMENT_SET_NO><REV_AT_EPOCH>6553</REV_AT_EPOCH><BSTAR>.93102835E-4</BSTAR><MEAN_MOTION_DOT>.49E-6</MEAN_MOTION_DOT><MEAN_MOTION_DDOT>0</MEAN_MOTION_DDOT></tleParameters></data></segment></body></omm>
<omm id="CCSDS_OMM_VERS" version="2.0">
<header><CREATION_DATE/><ORIGINATOR/></header><body><segment><metadata><OBJECT_NAME>ONEWEB-0688</OBJECT_NAME><OBJECT_ID>2024-188C</OBJECT_ID><CENTER_NAME>EARTH</CENTER_NAME><REF_FRAME>TEME</REF_FRAME><TIME_SYSTEM>UTC</TIME_SYSTEM><MEAN_ELEMENT_THEORY>SGP4</MEAN_ELEMENT_THEORY></metadata><data><meanElements><EPOCH>2026-01-13T12:02:14.288064</EPOCH><MEAN_MOTION>13.17650203</MEAN_MOTION><ECCENTRICITY>.0003122</ECCENTRICITY><INCLINATION>87.9073</INCLINATION><RA_OF_ASC_NODE>36.6388</RA_OF_ASC_NODE><ARG_OF_PERICENTER>91.2798</ARG_OF_PERICENTER><MEAN_ANOMALY>268.8691</MEAN_ANOMALY></meanElements><tleParameters><EPHEMERIS_TYPE>0</EPHEMERIS_TYPE><CLASSIFICATION_TYPE>U</CLASSIFICATION_TYPE><NORAD_CAT_ID>61596</NORAD_CAT_ID><ELEMENT_SET_NO>999</ELEMENT_SET_NO><REV_AT_EPOCH>6552</REV_AT_EPOCH><BSTAR>.14061764E-3</BSTAR><MEAN_MOTION_DOT>.67E-6</MEAN_MOTION_DOT><MEAN_MOTION_DDOT>0</MEAN_MOTION_DDOT></tleParameters></data></segment></body></omm>
<omm id="CCSDS_OMM_VERS" version="2.0">
<header><CREATION_DATE/><ORIGINATOR/></header><body><segment><metadata><OBJECT_NAME>ONEWEB-0689</OBJECT_NAME><OBJECT_ID>2024-188D</OBJECT_ID><CENTER_NAME>EARTH</CENTER_NAME><REF_FRAME>TEME</REF_FRAME><TIME_SYSTEM>UTC</TIME_SYSTEM><MEAN_ELEMENT_THEORY>SGP4</MEAN_ELEMENT_THEORY></metadata><data><meanElements><EPOCH>2026-01-13T12:53:36.904416</EPOCH><MEAN_MOTION>13.11419440</MEAN_MOTION><ECCENTRICITY>.00018586</ECCENTRICITY><INCLINATION>87.8830</INCLINATION><RA_OF_ASC_NODE>51.8193</RA_OF_ASC_NODE><ARG_OF_PERICENTER>106.7870</ARG_OF_PERICENTER><MEAN_ANOMALY>253.3462</MEAN_ANOMALY></meanElements><tleParameters><EPHEMERIS_TYPE>0</EPHEMERIS_TYPE><CLASSIFICATION_TYPE>U</CLASSIFICATION_TYPE><NORAD_CAT_ID>61597</NORAD_CAT_ID><ELEMENT_SET_NO>999</ELEMENT_SET_NO><REV_AT_EPOCH>6418</REV_AT_EPOCH><BSTAR>.70417811E-3</BSTAR><MEAN_MOTION_DOT>.262E-5</MEAN_MOTION_DOT><MEAN_MOTION_DDOT>0</MEAN_MOTION_DDOT></tleParameters></data></segment></body></omm>
<omm id="CCSDS_OMM_VERS" version="2.0">
<header><CREATION_DATE/><ORIGINATOR/></header><body><segment><metadata><OBJECT_NAME>ONEWEB-0690</OBJECT_NAME><OBJECT_ID>2024-188E</OBJECT_ID><CENTER_NAME>EARTH</CENTER_NAME><REF_FRAME>TEME</REF_FRAME><TIME_SYSTEM>UTC</TIME_SYSTEM><MEAN_ELEMENT_THEORY>SGP4</MEAN_ELEMENT_THEORY></metadata><data><meanElements><EPOCH>2026-01-13T13:08:16.740672</EPOCH><MEAN_MOTION>13.11417215</MEAN_MOTION><ECCENTRICITY>.00016561</ECCENTRICITY><INCLINATION>87.8837</INCLINATION><RA_OF_ASC_NODE>51.8365</RA_OF_ASC_NODE><ARG_OF_PERICENTER>72.7509</ARG_OF_PERICENTER><MEAN_ANOMALY>287.3800</MEAN_ANOMALY></meanElements><tleParameters><EPHEMERIS_TYPE>0</EPHEMERIS_TYPE><CLASSIFICATION_TYPE>U</CLASSIFICATION_TYPE><NORAD_CAT_ID>61598</NORAD_CAT_ID><ELEMENT_SET_NO>999</ELEMENT_SET_NO><REV_AT_EPOCH>6436</REV_AT_EPOCH><BSTAR>.15672263E-2</BSTAR><MEAN_MOTION_DOT>.568E-5</MEAN_MOTION_DOT><MEAN_MOTION_DDOT>0</MEAN_MOTION_DDOT></tleParameters></data></segment></body></omm>
<omm id="CCSDS_OMM_VERS" version="2.0">
<header><CREATION_DATE/><ORIGINATOR/></header><body><segment><metadata><OBJECT_NAME>ONEWEB-0691</OBJECT_NAME><OBJECT_ID>2024-188F</OBJECT_ID><CENTER_NAME>EARTH</CENTER_NAME><REF_FRAME>TEME</REF_FRAME><TIME_SYSTEM>UTC</TIME_SYSTEM><MEAN_ELEMENT_THEORY>SGP4</MEAN_ELEMENT_THEORY></metadata><data><meanElements><EPOCH>2026-01-13T13:00:57.270528</EPOCH><MEAN_MOTION>13.11418238</MEAN_MOTION><ECCENTRICITY>.00022453</ECCENTRICITY><INCLINATION>87.8840</INCLINATION><RA_OF_ASC_NODE>51.7350</RA_OF_ASC_NODE><ARG_OF_PERICENTER>97.1009</ARG_OF_PERICENTER><MEAN_ANOMALY>263.0374</MEAN_ANOMALY></meanElements><tleParameters><EPHEMERIS_TYPE>0</EPHEMERIS_TYPE><CLASSIFICATION_TYPE>U</CLASSIFICATION_TYPE><NORAD_CAT_ID>61599</NORAD_CAT_ID><ELEMENT_SET_NO>999</ELEMENT_SET_NO><REV_AT_EPOCH>6421</REV_AT_EPOCH><BSTAR>.13365821E-2</BSTAR><MEAN_MOTION_DOT>.486E-5</MEAN_MOTION_DOT><MEAN_MOTION_DDOT>0</MEAN_MOTION_DDOT></tleParameters></data></segment></body></omm>
<omm id="CCSDS_OMM_VERS" version="2.0">
<header><CREATION_DATE/><ORIGINATOR/></header><body><segment><metadata><OBJECT_NAME>ONEWEB-0692</OBJECT_NAME><OBJECT_ID>2024-188G</OBJECT_ID><CENTER_NAME>EARTH</CENTER_NAME><REF_FRAME>TEME</REF_FRAME><TIME_SYSTEM>UTC</TIME_SYSTEM><MEAN_ELEMENT_THEORY>SGP4</MEAN_ELEMENT_THEORY></metadata><data><meanElements><EPOCH>2026-01-13T15:20:06.088704</EPOCH><MEAN_MOTION>13.11415259</MEAN_MOTION><ECCENTRICITY>.00011627</ECCENTRICITY><INCLINATION>87.8819</INCLINATION><RA_OF_ASC_NODE>51.8585</RA_OF_ASC_NODE><ARG_OF_PERICENTER>123.9896</ARG_OF_PERICENTER><MEAN_ANOMALY>236.1342</MEAN_ANOMALY></meanElements><tleParameters><EPHEMERIS_TYPE>0</EPHEMERIS_TYPE><CLASSIFICATION_TYPE>U</CLASSIFICATION_TYPE><NORAD_CAT_ID>61600</NORAD_CAT_ID><ELEMENT_SET_NO>999</ELEMENT_SET_NO><REV_AT_EPOCH>6421</REV_AT_EPOCH><BSTAR>.97597791E-3</BSTAR><MEAN_MOTION_DOT>.359E-5</MEAN_MOTION_DOT><MEAN_MOTION_DDOT>0</MEAN_MOTION_DDOT></tleParameters></data></segment></body></omm>
<omm id="CCSDS_OMM_VERS" version="2.0">
<header><CREATION_DATE/><ORIGINATOR/></header><body><segment><metadata><OBJECT_NAME>ONEWEB-0693</OBJECT_NAME><OBJECT_ID>2024-188H</OBJECT_ID><CENTER_NAME>EARTH</CENTER_NAME><REF_FRAME>TEME</REF_FRAME><TIME_SYSTEM>UTC</TIME_SYSTEM><MEAN_ELEMENT_THEORY>SGP4</MEAN_ELEMENT_THEORY></metadata><data><meanElements><EPOCH>2026-01-13T12:19:13.913472</EPOCH><MEAN_MOTION>13.17647365</MEAN_MOTION><ECCENTRICITY>.00019671</ECCENTRICITY><INCLINATION>87.9078</INCLINATION><RA_OF_ASC_NODE>36.6571</RA_OF_ASC_NODE><ARG_OF_PERICENTER>68.0234</ARG_OF_PERICENTER><MEAN_ANOMALY>292.1107</MEAN_ANOMALY></meanElements><tleParameters><EPHEMERIS_TYPE>0</EPHEMERIS_TYPE><CLASSIFICATION_TYPE>U</CLASSIFICATION_TYPE><NORAD_CAT_ID>61601</NORAD_CAT_ID><ELEMENT_SET_NO>999</ELEMENT_SET_NO><REV_AT_EPOCH>6551</REV_AT_EPOCH><BSTAR>.10813371E-3</BSTAR><MEAN_MOTION_DOT>.55E-6</MEAN_MOTION_DOT><MEAN_MOTION_DDOT>0</MEAN_MOTION_DDOT></tleParameters></data></segment></body></omm>

</ndm>
